NORAD_CAT_ID,OBJECT_NAME,OBJECT_TYPE,EPOCH,MEAN_MOTION,ECCENTRICITY,INCLINATION,RA_OF_ASC_NODE,ARG_OF_PERICENTER,MEAN_ANOMALY,BSTAR,MEAN_MOTION_DOT,MEAN_MOTION_DDOT,TLE_LINE0,TLE_LINE1,TLE_LINE2,SEMIMAJOR_AXIS,PERIOD,APOGEE,PERIGEE,DECAYED
51970.0,STARLINK-3677,PAYLOAD,2022-03-16 14:00:01,15.82559,0.000109,53.2173,105.171,78.1302,157.0505,-0.0045285,-0.00875379,0.0,0 STARLINK-3677,1 51970U 22025Q   22075.58334491 -.00875379  00000-0 -45285-2 0  9993,2 51970  53.2173 105.1710 0001090  78.1302 157.0505 15.82559000  2371,6701.344,90.992,323.939,322.478,0.0
51970.0,STARLINK-3677,PAYLOAD,2022-03-16 20:00:01,15.82089211,0.0001203,53.2177,103.9154,63.0661,157.0282,-0.0046535,-0.00879423,0.0,0 STARLINK-3677,1 51970U 22025Q   22075.83334491 -.00879423  00000-0 -46535-2 0  9994,2 51970  53.2177 103.9154 0001203  63.0661 157.0282 15.82089211  1351,6702.67,91.019,325.342,323.7290000000001,0.0
51970.0,STARLINK-3677,PAYLOAD,2022-03-17 14:00:01,15.80672104,0.0001152,53.2171,100.1605,66.532,105.7487,-0.004956,-0.00876772,0.0,0 STARLINK-3677,1 51970U 22025Q   22076.58334491 -.00876772  00000-0 -49560-2 0  9992,2 51970  53.2171 100.1605 0001152  66.5320 105.7487 15.80672104  2522,6706.676,91.1,329.3130000000001,327.76800000000014,0.0
51970.0,STARLINK-3677,PAYLOAD,2022-03-17 22:00:00,15.80041403,0.0001056,53.2174,98.4913,79.5516,190.2521,-0.0050882,-0.0087446,0.0,0 STARLINK-3677,1 51970U 22025Q   22076.91667824 -.00874460  00000-0 -50882-2 0  9999,2 51970  53.2174  98.4913 0001056  79.5516 190.2521 15.80041403  1529,6708.46,91.137,331.034,329.617,0.0
51970.0,STARLINK-3677,PAYLOAD,2022-03-18 14:00:01,15.7878483,0.0001116,53.2171,95.1636,60.4165,42.1588,-0.0054089,-0.00877246,0.0,0 STARLINK-3677,1 51970U 22025Q   22077.58334491 -.00877246  00000-0 -54089-2 0  9992,2 51970  53.2171  95.1636 0001116  60.4165  42.1588 15.78784830  2689,6712.02,91.209,334.634,333.135,0.0
51970.0,STARLINK-3677,PAYLOAD,2022-03-18 22:00:00,15.78154466,0.0001286,53.2172,93.4991,56.0786,141.7505,-0.0055516,-0.00875238,0.0,0 STARLINK-3677,1 51970U 22025Q   22077.91667824 -.00875238  00000-0 -55516-2 0  9993,2 51970  53.2172  93.4991 0001286  56.0786 141.7505 15.78154466  1683,6713.807,91.246,336.535,334.80800000000005,0.0
51970.0,STARLINK-3677,PAYLOAD,2022-03-19 14:00:01,15.76896728,9.7e-05,53.2171,90.1809,75.0314,311.0326,-0.0058777,-0.00875495,0.0,0 STARLINK-3677,1 51970U 22025Q   22078.58334491 -.00875495  00000-0 -58777-2 0  9995,2 51970  53.2171  90.1809 0000970  75.0314 311.0326 15.76896728  2845,6717.376,91.319,339.89300000000014,338.59,0.0
51970.0,STARLINK-3677,PAYLOAD,2022-03-19 22:00:01,15.762665599999998,0.0001207,53.2173,88.521,54.7481,64.3669,-0.0060439,-0.00875386,0.0,0 STARLINK-3677,1 51970U 22025Q   22078.91668981 -.00875386  00000-0 -60439-2 0  9993,2 51970  53.2173  88.5210 0001207  54.7481  64.3669 15.76266560  1849,6719.166,91.355,341.842,340.22,0.0
51970.0,STARLINK-3677,PAYLOAD,2022-03-20 12:00:00,15.75162152,0.000128,53.2172,85.6258,60.1703,129.7805,-0.0062938,-0.00868825,0.0,0 STARLINK-3677,1 51970U 22025Q   22079.50001157 -.00868825  00000-0 -62938-2 0  9991,2 51970  53.2172  85.6258 0001280  60.1703 129.7805 15.75162152  2982,6722.307,91.419,345.032,343.311,0.0
51970.0,STARLINK-3677,PAYLOAD,2022-03-20 14:00:01,15.75009185,0.0001107999999999,53.2172,85.2117,64.0993,238.6472,-0.0063941,-0.00875934,0.0,0 STARLINK-3677,1 51970U 22025Q   22079.58334491 -.00875934  00000-0 -63941-2 0  9993,2 51970  53.2172  85.2117 0001108  64.0993 238.6472 15.75009185  1957,6722.7419999999975,91.428,345.352,343.862,0.0
51970.0,STARLINK-3677,PAYLOAD,2022-03-20 22:00:01,15.7437775,0.0001117,53.2172,83.5567,54.9952,338.5344,-0.0065563,-0.00873866,0.0,0 STARLINK-3677,1 51970U 22025Q   22079.91668981 -.00873866  00000-0 -65563-2 0  9998,2 51970  53.2172  83.5567 0001117  54.9952 338.5344 15.74377750  2000,6724.5390000000025,91.465,347.156,345.653,0.0
51970.0,STARLINK-3677,PAYLOAD,2022-03-21 14:00:01,15.73206511,0.0001159,53.2171,80.2568,69.2163,143.4179,-3.5198000000000004e-05,-5.557e-05,0.0,0 STARLINK-3677,1 51970U 22025Q   22080.58334491 -.00005557  00000-0 -35198-4 0  9996,2 51970  53.2171  80.2568 0001159  69.2163 143.4179 15.73206511  3154,6727.877,91.533,350.521,348.962,0.0
51970.0,STARLINK-3677,PAYLOAD,2022-03-21 22:00:00,15.72980659,0.0001178,53.2176,78.6069,58.2196,243.4666,0.0024594,0.00356243,0.0,0 STARLINK-3677,1 51970U 22025Q   22080.91667824  .00356243  00000-0  24594-2 0  9997,2 51970  53.2176  78.6069 0001178  58.2196 243.4666 15.72980659  2164,6728.521,91.546,351.17800000000005,349.593,0.0
51970.0,STARLINK-3677,PAYLOAD,2022-03-22 04:00:00,15.73276217,0.0001281999999999,53.2196,77.3774,58.9658,219.4803,-0.00056044,-0.00078796,0.0,0 STARLINK-3677,1 51970U 22025Q   22081.16667824 -.00078796  00000-0 -56044-3 0  9997,2 51970  53.2196  77.3774 0001282  58.9658 219.4803 15.73276217  3257,6727.678000000001,91.529,350.405,348.68,0.0
51970.0,STARLINK-3677,PAYLOAD,2022-03-22 14:00:01,15.73261503,0.0001338,53.2192,75.3158,55.7042,63.9778,-0.00098724,-0.00137295,0.0,0 STARLINK-3677,1 51970U 22025Q   22081.58334491 -.00137295  00000-0 -98724-3 0  9995,2 51970  53.2192  75.3158 0001338  55.7042  63.9778 15.73261503  3313,6727.72,91.53,350.485,348.685,0.0
51970.0,STARLINK-3677,PAYLOAD,2022-03-22 20:00:01,15.73135287,0.0001203,53.2193,74.0774,67.3653,29.0517,0.00048171,0.0006734,0.0,0 STARLINK-3677,1 51970U 22025Q   22081.83334491  .00067340  00000-0  48171-3 0  9995,2 51970  53.2193  74.0774 0001203  67.3653  29.0517 15.73135287  3359,6728.08,91.537,350.754,349.135,0.0
51970.0,STARLINK-3677,PAYLOAD,2022-03-22 22:00:01,15.73135612,0.0001268,53.2193,73.6648,70.0647,138.6363,0.00062946,0.00088409,0.0,0 STARLINK-3677,1 51970U 22025Q   22081.91668981  .00088409  00000-0  62946-3 0  9993,2 51970  53.2193  73.6648 0001268  70.0647 138.6363 15.73135612  2323,6728.079000000002,91.537,350.797,349.091,0.0
51970.0,STARLINK-3677,PAYLOAD,2022-03-23 14:00:01,15.731915300000002,0.0001172,53.2197,70.368,58.4054,328.0489,9.1098e-05,0.00012179,0.0,0 STARLINK-3677,1 51970U 22025Q   22082.58334491  .00012179  00000-0  91098-4 0  9995,2 51970  53.2197  70.3680 0001172  58.4054 328.0489 15.73191530  3475,6727.919,91.534,350.5730000000001,348.996,0.0
51970.0,STARLINK-3677,PAYLOAD,2022-03-23 22:00:00,15.73193175,0.0001091,53.2201,68.717,68.3419,47.0241,0.0005492,0.00077144,0.0,0 STARLINK-3677,1 51970U 22025Q   22082.91667824  .00077144  00000-0  54920-3 0  9996,2 51970  53.2201  68.7170 0001091  68.3419  47.0241 15.73193175  2471,6727.915,91.534,350.514,349.046,0.0
51970.0,STARLINK-3677,PAYLOAD,2022-03-24 14:00:01,15.73187105,0.0001149,53.2197,65.4196,59.2359,234.0456,0.00012257,0.00016606,0.0,0 STARLINK-3677,1 51970U 22025Q   22083.58334491  .00016606  00000-0  12257-3 0  9994,2 51970  53.2197  65.4196 0001149  59.2359 234.0456 15.73187105  2587,6727.932,91.534,350.57,349.024,0.0
51970.0,STARLINK-3677,PAYLOAD,2022-03-24 22:00:00,15.73223082,0.0001041,53.2195,63.7692,72.1054,310.0909,0.00016794,0.00023037,0.0,0 STARLINK-3677,1 51970U 22025Q   22083.91667824  .00023037  00000-0  16794-3 0  9996,2 51970  53.2195  63.7692 0001041  72.1054 310.0909 15.73223082  2633,6727.829000000002,91.532,350.395,348.994,0.0
51970.0,STARLINK-3677,PAYLOAD,2022-03-25 00:00:02,15.73250489,0.000104,53.2195,63.3574,71.7235,62.761,-0.00038231,-0.00054045,0.0,0 STARLINK-3677,1 51970U 22025Q   22084.00002315 -.00054045  00000-0 -38231-3 0  9990,2 51970  53.2195  63.3574 0001040  71.7235  62.7610 15.73250489  3691,6727.751,91.53,350.316,348.917,0.0
51970.0,STARLINK-3677,PAYLOAD,2022-03-25 12:00:00,15.73261737,0.0001129,53.2179,60.8846,56.0443,31.795,-0.00040237,-0.00056857,0.0,0 STARLINK-3677,1 51970U 22025Q   22084.50001157 -.00056857  00000-0 -40237-3 0  9990,2 51970  53.2179  60.8846 0001129  56.0443  31.7950 15.73261737  3772,6727.719,91.53,350.344,348.825,0.0
51970.0,STARLINK-3677,PAYLOAD,2022-03-25 14:00:01,15.73299918,0.0001095,53.2179,60.4717,62.6678,137.4063,-0.0011606,-0.00161104,0.0,0 STARLINK-3677,1 51970U 22025Q   22084.58334491 -.00161104  00000-0 -11606-2 0  9997,2 51970  53.2179  60.4717 0001095  62.6678 137.4063 15.73299918  2747,6727.61,91.527,350.212,348.73900000000015,0.0
51970.0,STARLINK-3677,PAYLOAD,2022-03-25 22:00:01,15.73180182,0.0001183,53.2177,58.8203,76.4858,212.6356,0.00015338,0.00020941,0.0,0 STARLINK-3677,1 51970U 22025Q   22084.91668981  .00020941  00000-0  15338-3 0  9996,2 51970  53.2177  58.8203 0001183  76.4858 212.6356 15.73180182  2795,6727.9519999999975,91.534,350.61300000000006,349.021,0.0
51970.0,STARLINK-3677,PAYLOAD,2022-03-26 14:00:01,15.73205956,0.0001127,53.2174,55.523,67.7953,39.0772,0.00016677,0.00022855,0.0,0 STARLINK-3677,1 51970U 22025Q   22085.58334491  .00022855  00000-0  16677-3 0  9999,2 51970  53.2174  55.5230 0001127  67.7953  39.0772 15.73205956  3941,6727.878000000002,91.533,350.501,348.985,0.0
51970.0,STARLINK-3677,PAYLOAD,2022-03-26 22:00:00,15.73249236,0.0001182,53.2176,53.8727,80.3549,115.4458,-0.00032939,-0.00046688,0.0,0 STARLINK-3677,1 51970U 22025Q   22085.91667824 -.00046688  00000-0 -32939-3 0  9996,2 51970  53.2176  53.8727 0001182  80.3549 115.4458 15.73249236  2957,6727.755,91.53,350.415,348.825,0.0
51970.0,STARLINK-3677,PAYLOAD,2022-03-27 06:00:00,15.73197465,0.0001298,53.2175,52.2252,69.6005,215.1658,-0.00036956,-0.00052159,0.0,0 STARLINK-3677,1 51970U 22025Q   22086.25001157 -.00052159  00000-0 -36956-3 0  9998,2 51970  53.2175  52.2252 0001298  69.6005 215.1658 15.73197465  4056,6727.901999999999,91.533,350.641,348.894,0.0
51970.0,STARLINK-3677,PAYLOAD,2022-03-27 14:00:01,15.73209545,0.0001149,53.2176,50.5744,74.6792,299.0163,-0.00044172,-0.0006218,0.0,0 STARLINK-3677,1 51970U 22025Q   22086.58334491 -.00062180  00000-0 -44172-3 0  9998,2 51970  53.2176  50.5744 0001149  74.6792 299.0163 15.73209545  4109,6727.868,91.533,350.506,348.96,0.0
